{
  "type": "FeatureCollection",
  "features": [
    {
      "type": "Feature",
      "properties": {
        "norad_id": 15362,
        "name": "NOVA 3",
        "group": "nnss",
        "lat": -5.327774718867799,
        "lon": 80.6388061110108,
        "alt_km": 1160.7451509037237,
        "timestamp": "2025-12-20T14:38:02.238481+00:00",
        "meta_object_name": "NOVA 3",
        "meta_object_id": "1984-110A",
        "meta_epoch": "2025-12-20T05:50:42.318240",
        "meta_mean_motion": 13.23045429,
        "meta_eccentricity": 0.00300028,
        "meta_inclination": 90.1222,
        "meta_ra_of_asc_node": 80.6231,
        "meta_arg_of_pericenter": 310.4079,
        "meta_mean_anomaly": 100.9335,
        "meta_ephemeris_type": 0,
        "meta_classification_type": "U",
        "meta_norad_cat_id": 15362,
        "meta_element_set_no": 999,
        "meta_rev_at_epoch": 98798,
        "meta_bstar": 0.00010221395,
        "meta_mean_motion_dot": 5.1e-07,
        "meta_mean_motion_ddot": 0,
        "tle_line1": "1 15362U 84110A   25354.24354535  .00000051  00000+0  10221-3 0  9995",
        "tle_line2": "2 15362  90.1222  80.6231 0030002 310.4079 100.9335 13.23045429987989"
      },
      "geometry": {
        "type": "Point",
        "coordinates": [
          80.6388061110108,
          -5.327774718867799
        ]
      }
    },
    {
      "type": "Feature",
      "properties": {
        "norad_id": 15935,
        "name": "OSCAR 30",
        "group": "nnss",
        "lat": 84.81207287518924,
        "lon": 98.15166375169714,
        "alt_km": 999.2233014829408,
        "timestamp": "2025-12-20T14:38:02.238491+00:00",
        "meta_object_name": "OSCAR 30",
        "meta_object_id": "1985-066A",
        "meta_epoch": "2025-12-20T02:29:33.841824",
        "meta_mean_motion": 13.36079328,
        "meta_eccentricity": 0.01691999,
        "meta_inclination": 90.1655,
        "meta_ra_of_asc_node": 99.9676,
        "meta_arg_of_pericenter": 63.3487,
        "meta_mean_anomaly": 108.9124,
        "meta_ephemeris_type": 0,
        "meta_classification_type": "U",
        "meta_norad_cat_id": 15935,
        "meta_element_set_no": 999,
        "meta_rev_at_epoch": 96551,
        "meta_bstar": 0.00010067291,
        "meta_mean_motion_dot": 6.6e-07,
        "meta_mean_motion_ddot": 0,
        "tle_line1": "1 15935U 85066A   25354.10386391  .00000066  00000+0  10067-3 0  9996",
        "tle_line2": "2 15935  90.1655  99.9676 0169199  63.3487 108.9124 13.36079328965516"
      },
      "geometry": {
        "type": "Point",
        "coordinates": [
          98.15166375169714,
          84.81207287518924
        ]
      }
    },
    {
      "type": "Feature",
      "properties": {
        "norad_id": 15936,
        "name": "OSCAR 24",
        "group": "nnss",
        "lat": 22.562233920804577,
        "lon": -87.48100832477158,
        "alt_km": 1119.6208481450594,
        "timestamp": "2025-12-20T14:38:02.238502+00:00",
        "meta_object_name": "OSCAR 24",
        "meta_object_id": "1985-066B",
        "meta_epoch": "2025-12-20T04:55:15.563136",
        "meta_mean_motion": 13.35936745,
        "meta_eccentricity": 0.01703236,
        "meta_inclination": 90.1791,
        "meta_ra_of_asc_node": 92.4374,
        "meta_arg_of_pericenter": 69.504,
        "meta_mean_anomaly": 300.6372,
        "meta_ephemeris_type": 0,
        "meta_classification_type": "U",
        "meta_norad_cat_id": 15936,
        "meta_element_set_no": 999,
        "meta_rev_at_epoch": 96743,
        "meta_bstar": 9.8160446e-05,
        "meta_mean_motion_dot": 6.4e-07,
        "meta_mean_motion_ddot": 0,
        "tle_line1": "1 15936U 85066B   25354.20504124  .00000064  00000+0  98160-4 0  9993",
        "tle_line2": "2 15936  90.1791  92.4374 0170323  69.5040 300.6372 13.35936745967438"
      },
      "geometry": {
        "type": "Point",
        "coordinates": [
          -87.48100832477158,
          22.562233920804577
        ]
      }
    },
    {
      "type": "Feature",
      "properties": {
        "norad_id": 17070,
        "name": "POLAR BEAR",
        "group": "nnss",
        "lat": 23.20713539759511,
        "lon": -176.37721763384494,
        "alt_km": 971.4595833517596,
        "timestamp": "2025-12-20T14:38:02.238512+00:00",
        "meta_object_name": "POLAR BEAR",
        "meta_object_id": "1986-088A",
        "meta_epoch": "2025-12-20T01:20:19.536288",
        "meta_mean_motion": 13.75252273,
        "meta_eccentricity": 0.00412627,
        "meta_inclination": 89.617,
        "meta_ra_of_asc_node": 183.4808,
        "meta_arg_of_pericenter": 98.1805,
        "meta_mean_anomaly": 64.6168,
        "meta_ephemeris_type": 0,
        "meta_classification_type": "U",
        "meta_norad_cat_id": 17070,
        "meta_element_set_no": 999,
        "meta_rev_at_epoch": 96079,
        "meta_bstar": 9.2170803e-05,
        "meta_mean_motion_dot": 1e-06,
        "meta_mean_motion_ddot": 0,
        "tle_line1": "1 17070U 86088A   25354.05578167  .00000100  00000+0  92171-4 0  9997",
        "tle_line2": "2 17070  89.6170 183.4808 0041262  98.1805  64.6168 13.75252273960795"
      },
      "geometry": {
        "type": "Point",
        "coordinates": [
          -176.37721763384494,
          23.20713539759511
        ]
      }
    },
    {
      "type": "Feature",
      "properties": {
        "norad_id": 18361,
        "name": "OSCAR 27",
        "group": "nnss",
        "lat": 38.23440672763251,
        "lon": -100.13835605360605,
        "alt_km": 1048.3104588713322,
        "timestamp": "2025-12-20T14:38:02.238523+00:00",
        "meta_object_name": "OSCAR 27",
        "meta_object_id": "1987-080A",
        "meta_epoch": "2025-12-20T04:59:48.117120",
        "meta_mean_motion": 13.44908124,
        "meta_eccentricity": 0.01035192,
        "meta_inclination": 90.3741,
        "meta_ra_of_asc_node": 79.5517,
        "meta_arg_of_pericenter": 202.253,
        "meta_mean_anomaly": 157.4109,
        "meta_ephemeris_type": 0,
        "meta_classification_type": "U",
        "meta_norad_cat_id": 18361,
        "meta_element_set_no": 999,
        "meta_rev_at_epoch": 87657,
        "meta_bstar": 0.00014474037,
        "meta_mean_motion_dot": 9.6e-07,
        "meta_mean_motion_ddot": 0,
        "tle_line1": "1 18361U 87080A   25354.20819580  .00000096  00000+0  14474-3 0  9991",
        "tle_line2": "2 18361  90.3741  79.5517 0103519 202.2530 157.4109 13.44908124876578"
      },
      "geometry": {
        "type": "Point",
        "coordinates": [
          -100.13835605360605,
          38.23440672763251
        ]
      }
    },
    {
      "type": "Feature",
      "properties": {
        "norad_id": 18362,
        "name": "OSCAR 29",
        "group": "nnss",
        "lat": 39.18157879814151,
        "lon": -99.66786418808229,
        "alt_km": 1080.334299557927,
        "timestamp": "2025-12-20T14:38:02.238533+00:00",
        "meta_object_name": "OSCAR 29",
        "meta_object_id": "1987-080B",
        "meta_epoch": "2025-12-20T05:08:03.659136",
        "meta_mean_motion": 13.44449616,
        "meta_eccentricity": 0.01043765,
        "meta_inclination": 90.3751,
        "meta_ra_of_asc_node": 80.0114,
        "meta_arg_of_pericenter": 225.4939,
        "meta_mean_anomaly": 161.7997,
        "meta_ephemeris_type": 0,
        "meta_classification_type": "U",
        "meta_norad_cat_id": 18362,
        "meta_element_set_no": 999,
        "meta_rev_at_epoch": 87610,
        "meta_bstar": 0.00012395438,
        "meta_mean_motion_dot": 8.2e-07,
        "meta_mean_motion_ddot": 0,
        "tle_line1": "1 18362U 87080B   25354.21393124  .00000082  00000+0  12395-3 0  9999",
        "tle_line2": "2 18362  90.3751  80.0114 0104376 225.4939 161.7997 13.44449616876100"
      },
      "geometry": {
        "type": "Point",
        "coordinates": [
          -99.66786418808229,
          39.18157879814151
        ]
      }
    },
    {
      "type": "Feature",
      "properties": {
        "norad_id": 19070,
        "name": "OSCAR 23",
        "group": "nnss",
        "lat": 13.717573747366444,
        "lon": -163.28525326161787,
        "alt_km": 1014.2166576713698,
        "timestamp": "2025-12-20T14:38:02.238544+00:00",
        "meta_object_name": "OSCAR 23",
        "meta_object_id": "1988-033A",
        "meta_epoch": "2025-12-20T01:17:13.826400",
        "meta_mean_motion": 13.27788394,
        "meta_eccentricity": 0.01901347,
        "meta_inclination": 90.3204,
        "meta_ra_of_asc_node": 16.6192,
        "meta_arg_of_pericenter": 159.6147,
        "meta_mean_anomaly": 229.5476,
        "meta_ephemeris_type": 0,
        "meta_classification_type": "U",
        "meta_norad_cat_id": 19070,
        "meta_element_set_no": 999,
        "meta_rev_at_epoch": 82350,
        "meta_bstar": 0.00018124399,
        "meta_mean_motion_dot": 9.9e-07,
        "meta_mean_motion_ddot": 0,
        "tle_line1": "1 19070U 88033A   25354.05363225  .00000099  00000+0  18124-3 0  9990",
        "tle_line2": "2 19070  90.3204  16.6192 0190134 159.6147 229.5476 13.27788394823508"
      },
      "geometry": {
        "type": "Point",
        "coordinates": [
          -163.28525326161787,
          13.717573747366444
        ]
      }
    }
  ]
}